SHIYAN-1 (SY-1)         
1 28220U 04012A   26068.73650539  .00016393  00000+0  54854-3 0  9991
2 28220  97.8764 140.5238 0005873  23.6952 336.4557 15.31043463195862
STARLINK-34539          
1 64674U 25139L   26068.54124975  .00016172  00000+0  55720-3 0  9994
2 64674  53.1596 127.5676 0001360  79.8701 280.2453 15.30185272 40163
